[{"OBJECT_NAME":"PHISAT 2","OBJECT_ID":"2024-149C","EPOCH":"2026-03-09T18:55:12.732384","MEAN_MOTION":15.29548632,"ECCENTRICITY":0.00011753,"INCLINATION":97.3806,"RA_OF_ASC_NODE":148.6498,"ARG_OF_PERICENTER":168.623,"MEAN_ANOMALY":191.5037,"EPHEMERIS_TYPE":0,"CLASSIFICATION_TYPE":"U","NORAD_CAT_ID":60470,"ELEMENT_SET_NO":999,"REV_AT_EPOCH":8679,"BSTAR":0.00031420974,"MEAN_MOTION_DOT":8.925e-5,"MEAN_MOTION_DDOT":0},{"OBJECT_NAME":"STARLINK-35755","OBJECT_ID":"2025-303A","EPOCH":"2026-03-09T02:09:41.884704","MEAN_MOTION":15.27594287,"ECCENTRICITY":0.00017003,"INCLINATION":42.9997,"RA_OF_ASC_NODE":314.0948,"ARG_OF_PERICENTER":332.6659,"MEAN_ANOMALY":27.4103,"EPHEMERIS_TYPE":0,"CLASSIFICATION_TYPE":"U","NORAD_CAT_ID":67163,"ELEMENT_SET_NO":999,"REV_AT_EPOCH":1264,"BSTAR":0.001451006,"MEAN_MOTION_DOT":0.00039901,"MEAN_MOTION_DDOT":0}]
